{
  "type": "FeatureCollection",
  "features": [
    {
      "type": "Feature",
      "properties": {
        "norad_id": 41866,
        "name": "GOES 16",
        "group": "weather",
        "lat": 0.03421915622149757,
        "lon": 175.96810630137455,
        "alt_km": 35784.07658100829,
        "timestamp": "2025-12-03T13:52:09.208270+00:00",
        "meta_object_name": "GOES 16",
        "meta_object_id": "2016-071A",
        "meta_epoch": "2025-12-03T07:03:00.652320",
        "meta_mean_motion": 1.0027058,
        "meta_eccentricity": 0.00034219,
        "meta_inclination": 0.0587,
        "meta_ra_of_asc_node": 106.7551,
        "meta_arg_of_pericenter": 150.0102,
        "meta_mean_anomaly": 176.7022,
        "meta_ephemeris_type": 0,
        "meta_classification_type": "U",
        "meta_norad_cat_id": 41866,
        "meta_element_set_no": 999,
        "meta_rev_at_epoch": 3313,
        "meta_bstar": 0,
        "meta_mean_motion_dot": -7.2e-07,
        "meta_mean_motion_ddot": 0,
        "tle_line1": "1 41866U 16071A   25337.29375755 -.00000072  00000+0  00000+0 0  9991",
        "tle_line2": "2 41866   0.0587 106.7551 0003421 150.0102 176.7022  1.00270580 33139"
      },
      "geometry": {
        "type": "Point",
        "coordinates": [
          175.96810630137455,
          0.03421915622149757
        ]
      }
    },
    {
      "type": "Feature",
      "properties": {
        "norad_id": 41882,
        "name": "FENGYUN 4A",
        "group": "weather",
        "lat": -1.0982875399487013,
        "lon": 44.42549477914727,
        "alt_km": 35805.73644522064,
        "timestamp": "2025-12-03T13:52:09.208283+00:00",
        "meta_object_name": "FENGYUN 4A",
        "meta_object_id": "2016-077A",
        "meta_epoch": "2025-12-03T07:29:41.704800",
        "meta_mean_motion": 1.00278256,
        "meta_eccentricity": 0.00050291,
        "meta_inclination": 1.8234,
        "meta_ra_of_asc_node": 82.4825,
        "meta_arg_of_pericenter": 141.8258,
        "meta_mean_anomaly": 84.2433,
        "meta_ephemeris_type": 0,
        "meta_classification_type": "U",
        "meta_norad_cat_id": 41882,
        "meta_element_set_no": 999,
        "meta_rev_at_epoch": 3296,
        "meta_bstar": 0,
        "meta_mean_motion_dot": -3.38e-06,
        "meta_mean_motion_ddot": 0,
        "tle_line1": "1 41882U 16077A   25337.31228825 -.00000338  00000+0  00000+0 0  9998",
        "tle_line2": "2 41882   1.8234  82.4825 0005029 141.8258  84.2433  1.00278256 32962"
      },
      "geometry": {
        "type": "Point",
        "coordinates": [
          44.42549477914727,
          -1.0982875399487013
        ]
      }
    },
    {
      "type": "Feature",
      "properties": {
        "norad_id": 41884,
        "name": "CYGFM05",
        "group": "weather",
        "lat": -0.40398690386066166,
        "lon": 106.37601416276408,
        "alt_km": 424.7627808090774,
        "timestamp": "2025-12-03T13:52:09.208294+00:00",
        "meta_object_name": "CYGFM05",
        "meta_object_id": "2016-078A",
        "meta_epoch": "2025-12-03T01:28:58.083168",
        "meta_mean_motion": 15.47083635,
        "meta_eccentricity": 0.000941,
        "meta_inclination": 34.958,
        "meta_ra_of_asc_node": 110.3228,
        "meta_arg_of_pericenter": 90.273,
        "meta_mean_anomaly": 269.907,
        "meta_ephemeris_type": 0,
        "meta_classification_type": "U",
        "meta_norad_cat_id": 41884,
        "meta_element_set_no": 999,
        "meta_rev_at_epoch": 49826,
        "meta_bstar": 0.00049127619,
        "meta_mean_motion_dot": 0.00025714,
        "meta_mean_motion_ddot": 0,
        "tle_line1": "1 41884U 16078A   25337.06178337  .00025714  00000+0  49128-3 0  9997",
        "tle_line2": "2 41884  34.9580 110.3228 0009410  90.2730 269.9070 15.47083635498262"
      },
      "geometry": {
        "type": "Point",
        "coordinates": [
          106.37601416276408,
          -0.40398690386066166
        ]
      }
    },
    {
      "type": "Feature",
      "properties": {
        "norad_id": 41885,
        "name": "CYGFM04",
        "group": "weather",
        "lat": 16.7373040710465,
        "lon": -123.52934834087978,
        "alt_km": 408.56173178184326,
        "timestamp": "2025-12-03T13:52:09.208305+00:00",
        "meta_object_name": "CYGFM04",
        "meta_object_id": "2016-078B",
        "meta_epoch": "2025-12-03T08:35:20.674752",
        "meta_mean_motion": 15.49770286,
        "meta_eccentricity": 0.0008453,
        "meta_inclination": 34.9343,
        "meta_ra_of_asc_node": 83.4335,
        "meta_arg_of_pericenter": 123.3157,
        "meta_mean_anomaly": 236.8375,
        "meta_ephemeris_type": 0,
        "meta_classification_type": "U",
        "meta_norad_cat_id": 41885,
        "meta_element_set_no": 999,
        "meta_rev_at_epoch": 49848,
        "meta_bstar": 0.0010276258,
        "meta_mean_motion_dot": 0.00059404,
        "meta_mean_motion_ddot": 0,
        "tle_line1": "1 41885U 16078B   25337.35787818  .00059404  00000+0  10276-2 0  9994",
        "tle_line2": "2 41885  34.9343  83.4335 0008453 123.3157 236.8375 15.49770286498488"
      },
      "geometry": {
        "type": "Point",
        "coordinates": [
          -123.52934834087978,
          16.7373040710465
        ]
      }
    },
    {
      "type": "Feature",
      "properties": {
        "norad_id": 41886,
        "name": "CYGFM02",
        "group": "weather",
        "lat": 30.452403717191956,
        "lon": -156.9201723103794,
        "alt_km": 400.87321005521244,
        "timestamp": "2025-12-03T13:52:09.208317+00:00",
        "meta_object_name": "CYGFM02",
        "meta_object_id": "2016-078C",
        "meta_epoch": "2025-12-03T08:43:51.389472",
        "meta_mean_motion": 15.51096101,
        "meta_eccentricity": 0.00102202,
        "meta_inclination": 34.943,
        "meta_ra_of_asc_node": 81.8409,
        "meta_arg_of_pericenter": 122.8102,
        "meta_mean_anomaly": 237.3606,
        "meta_ephemeris_type": 0,
        "meta_classification_type": "U",
        "meta_norad_cat_id": 41886,
        "meta_element_set_no": 999,
        "meta_rev_at_epoch": 49861,
        "meta_bstar": 0.00050655227,
        "meta_mean_motion_dot": 0.00030584,
        "meta_mean_motion_ddot": 0,
        "tle_line1": "1 41886U 16078C   25337.36378923  .00030584  00000+0  50655-3 0  9993",
        "tle_line2": "2 41886  34.9430  81.8409 0010220 122.8102 237.3606 15.51096101498617"
      },
      "geometry": {
        "type": "Point",
        "coordinates": [
          -156.9201723103794,
          30.452403717191956
        ]
      }
    },
    {
      "type": "Feature",
      "properties": {
        "norad_id": 41887,
        "name": "CYGFM01",
        "group": "weather",
        "lat": 13.762016551526841,
        "lon": 129.90490619081368,
        "alt_km": 417.4920348199212,
        "timestamp": "2025-12-03T13:52:09.208328+00:00",
        "meta_object_name": "CYGFM01",
        "meta_object_id": "2016-078D",
        "meta_epoch": "2025-12-02T19:11:10.478976",
        "meta_mean_motion": 15.47633981,
        "meta_eccentricity": 0.00090758,
        "meta_inclination": 34.9409,
        "meta_ra_of_asc_node": 114.4547,
        "meta_arg_of_pericenter": 78.5446,
        "meta_mean_anomaly": 281.6294,
        "meta_ephemeris_type": 0,
        "meta_classification_type": "U",
        "meta_norad_cat_id": 41887,
        "meta_element_set_no": 999,
        "meta_rev_at_epoch": 49816,
        "meta_bstar": 0.00047955707,
        "meta_mean_motion_dot": 0.00025583,
        "meta_mean_motion_ddot": 0,
        "tle_line1": "1 41887U 16078D   25336.79942684  .00025583  00000+0  47956-3 0  9994",
        "tle_line2": "2 41887  34.9409 114.4547 0009075  78.5446 281.6294 15.47633981498167"
      },
      "geometry": {
        "type": "Point",
        "coordinates": [
          129.90490619081368,
          13.762016551526841
        ]
      }
    },
    {
      "type": "Feature",
      "properties": {
        "norad_id": 41888,
        "name": "CYGFM08",
        "group": "weather",
        "lat": 18.41147501925204,
        "lon": 120.93631827151874,
        "alt_km": 414.8899419537029,
        "timestamp": "2025-12-03T13:52:09.208340+00:00",
        "meta_object_name": "CYGFM08",
        "meta_object_id": "2016-078E",
        "meta_epoch": "2025-12-02T17:36:54.315072",
        "meta_mean_motion": 15.48804218,
        "meta_eccentricity": 0.00106484,
        "meta_inclination": 34.9446,
        "meta_ra_of_asc_node": 97.9884,
        "meta_arg_of_pericenter": 104.4395,
        "meta_mean_anomaly": 255.7509,
        "meta_ephemeris_type": 0,
        "meta_classification_type": "U",
        "meta_norad_cat_id": 41888,
        "meta_element_set_no": 999,
        "meta_rev_at_epoch": 49838,
        "meta_bstar": 0.00048806063,
        "meta_mean_motion_dot": 0.00027152,
        "meta_mean_motion_ddot": 0,
        "tle_line1": "1 41888U 16078E   25336.73396198  .00027152  00000+0  48806-3 0  9991",
        "tle_line2": "2 41888  34.9446  97.9884 0010648 104.4395 255.7509 15.48804218498387"
      },
      "geometry": {
        "type": "Point",
        "coordinates": [
          120.93631827151874,
          18.41147501925204
        ]
      }
    }
  ]
}